OBJECT_NAME,OBJECT_ID,EPOCH,MEAN_MOTION,ECCENTRICITY,INCLINATION,RA_OF_ASC_NODE,ARG_OF_PERICENTER,MEAN_ANOMALY,EPHEMERIS_TYPE,CLASSIFICATION_TYPE,NORAD_CAT_ID,ELEMENT_SET_NO,REV_AT_EPOCH,BSTAR,MEAN_MOTION_DOT,MEAN_MOTION_DDOT
EUTELSAT 53A,2014-064A,2026-06-09T05:02:06.817632,1.00270479,.0000791,0.0145,284.0351,258.5594,203.5265,0,U,40277,999,4148,0,.115E-5,0
GSAT-16,2014-078A,2026-06-10T04:59:55.226976,1.00272397,.00076714,0.0709,92.4348,353.3168,302.8783,0,U,40332,999,4203,0,.102E-5,0
DIRECTV 14,2014-078B,2026-06-09T01:17:09.208320,1.00271044,.00002356,0.0091,1.3268,206.1301,330.0282,0,U,40333,999,4196,0,-.109E-5,0
YAMAL 401,2014-082A,2026-06-09T17:32:21.533856,1.00273523,.00005876,0.0122,251.8924,232.2841,126.9842,0,U,40345,999,4184,0,-.212E-5,0
ASTRA 2G,2014-089A,2026-06-10T04:52:10.968672,1.00271651,.00048287,0.0525,19.0031,42.3125,298.4832,0,U,40364,999,4189,0,.167E-5,0
FENGYUN 2G,2014-090A,2026-06-09T20:00:10.522368,1.00276216,.00035152,5.6193,72.9049,153.2834,71.6860,0,U,40367,999,4192,0,-.287E-5,0
MUOS-3,2015-002A,2026-06-10T04:07:38.635680,1.00271937,.0051635,4.5080,43.4966,178.3921,83.1226,0,U,40374,999,4151,0,-.113E-5,0
INMARSAT 5-F2,2015-005A,2026-06-10T06:11:12.155712,1.00271089,.00005052,0.0182,351.2661,247.2364,57.9202,0,U,40384,999,4092,0,-.268E-5,0
ABS-3A,2015-010A,2026-06-10T03:59:38.914368,1.00269951,.00018935,0.0057,21.9934,14.1874,279.2427,0,U,40424,999,4130,0,-.9E-7,0
EUTELSAT 115 WEST B,2015-010B,2026-06-08T23:06:14.007168,1.00271121,.00000972,0.0228,162.5014,167.0892,159.4034,0,U,40425,999,4131,0,-.8E-7,0
EXPRESS-AM7,2015-012A,2026-06-10T06:38:17.059776,1.00273640,.00031427,0.0142,304.5681,146.8216,306.8423,0,U,40505,999,4093,0,.168E-5,0
BEIDOU-3S IGSO-1S,2015-019A,2026-06-09T21:15:42.344928,1.00252007,.00386437,49.2105,295.5512,190.9335,182.7618,0,U,40549,999,4100,0,-.175E-5,0
THOR 7,2015-022A,2026-06-10T06:26:40.673184,1.00271350,.00025386,0.0357,125.2569,315.4142,273.9752,0,U,40613,999,4074,0,.9E-7,0
TURKMENALEM52E/MONACOSAT,2015-023A,2026-06-10T03:16:20.854272,1.00273471,.00028489,0.0124,36.7248,43.8342,279.0627,0,U,40617,999,4077,0,.121E-5,0
DIRECTV 15,2015-026A,2026-06-10T05:57:33.255648,1.00269531,.00006536,0.0184,3.7345,280.2777,321.1253,0,U,40663,999,4039,0,-.85E-6,0
SKY MEXICO-1,2015-026B,2026-06-10T04:21:42.039648,1.00270961,.0002102,0.0149,307.2100,150.5136,147.4526,0,U,40664,999,4038,0,-.217E-5,0
METEOSAT-11 (MSG-4),2015-034A,2026-06-10T06:29:32.896896,1.00278178,.00017207,3.1848,71.1496,7.0467,287.2978,0,U,40732,999,714,0,.81E-6,0
STAR ONE C4,2015-034B,2026-06-10T06:06:50.075136,1.00272315,.0002214,0.0249,15.6588,52.0318,212.6465,0,U,40733,999,3994,0,-.248E-5,0
WGS F7 (USA 263),2015-036A,2026-06-10T03:51:22.071168,1.00271044,.00004802,0.0022,358.4485,321.3767,171.5229,0,U,40746,999,3980,0,.35E-6,0
INTELSAT 34 (IS-34),2015-039A,2026-06-10T06:11:04.668288,1.00270241,.00003642,0.0113,322.7949,13.9529,319.1622,0,U,40874,999,3956,0,-.268E-5,0
EUTELSAT 8 WEST B,2015-039B,2026-06-10T06:24:33.375744,1.00271529,.00038827,0.0638,0.1026,76.1409,270.5240,0,U,40875,999,3958,0,-.48E-6,0
GSAT-6,2015-041A,2026-06-10T03:25:05.017152,1.00271246,.00034163,1.9020,82.6801,351.8985,317.7186,0,U,40880,999,3952,0,-.143E-5,0
INMARSAT 5-F3,2015-042A,2026-06-10T02:10:07.002048,1.00269424,.00001317,0.0189,5.0391,2.5911,102.9963,0,U,40882,999,3950,0,.68E-6,0
MUOS-4,2015-044A,2026-06-10T05:36:38.605824,1.00271486,.00593081,4.3162,42.1931,4.8119,10.7835,0,U,40887,999,3949,0,-.78E-6,0
TJS-1,2015-046A,2026-06-10T05:28:22.531584,1.00271941,.00056409,0.3043,84.9734,356.0122,54.7620,0,U,40892,999,3950,0,-.138E-5,0
EXPRESS-AM8,2015-048A,2026-06-09T07:03:42.673824,1.00271280,.00002077,0.0164,284.6677,106.8020,318.1378,0,U,40895,999,3926,0,-.95E-6,0
BEIDOU-3S IGSO-2S,2015-053A,2026-06-09T21:06:13.529664,1.00261220,.00652774,49.2333,258.8715,191.8328,219.6473,0,U,40938,999,3928,0,-.151E-5,0
SKY MUSTER 1 (NBN1A),2015-054A,2026-06-10T07:06:48.605760,1.00270343,.00016977,0.0177,331.5852,117.5995,56.4355,0,U,40940,999,3919,0,-.261E-5,0
ARSAT 2,2015-054B,2026-06-10T04:21:04.599936,1.00269229,.0001942,0.0167,23.6123,44.3394,174.8532,0,U,40941,999,3923,0,-.207E-5,0
MORELOS 3,2015-056A,2026-06-10T05:54:33.543648,1.00271825,.00014965,3.1815,14.8971,357.7120,221.5239,0,U,40946,999,3921,0,-.28E-6,0
APSTAR-9,2015-059A,2026-06-10T07:07:18.558048,1.00269214,.00023786,0.0181,10.3294,172.9109,324.2453,0,U,40982,999,3905,0,-.249E-5,0
